H1 CPF 01  gfz 2022 09 09 00  7521 tandemx   
H2 1003001  6202 36605    2022 09 09 00 59 42 2022 09 14 00 00 42   120 1 1  0 0 0
H9
10 0 59832  82782.000000  0   -2000517.186   6327523.442   1841264.536
10 0 59832  82902.000000  0   -1882085.992   6556821.270    955962.929
10 0 59832  83022.000000  0   -1727765.863   6669103.625     53827.348
10 0 59832  83142.000000  0   -1542336.526   6661867.253   -849257.070
10 0 59832  83262.000000  0   -1331148.891   6534811.796  -1737403.883
10 0 59832  83382.000000  0   -1099988.856   6289846.484  -2595015.816
10 0 59832  83502.000000  0    -854934.651   5931051.404  -3407063.544
10 0 59832  83622.000000  0    -602210.745   5464599.002  -4159350.192
10 0 59832  83742.000000  0    -348041.966   4898636.138  -4838758.727
10 0 59832  83862.000000  0     -98510.907   4243129.849  -5433475.759
10 0 59832  83982.000000  0     140578.439   3509681.569  -5933189.796
10 0 59832  84102.000000  0     363827.454   2711312.693  -6329260.289
10 0 59832  84222.000000  0     566356.882   1862227.962  -6614854.994
10 0 59832  84342.000000  0     743907.210    977562.494  -6785056.871
10 0 59832  84462.000000  0     892923.352     73114.448  -6836940.039
10 0 59832  84582.000000  0    1010622.495   -834932.190  -6769614.509
10 0 59832  84702.000000  0    1095044.053  -1730290.648  -6584238.153
10 0 59832  84822.000000  0    1145081.555  -2596854.753  -6283998.325
10 0 59832  84942.000000  0    1160496.839  -3418981.987  -5874065.162
10 0 59832  85062.000000  0    1141914.418  -4181774.505  -5361512.617
10 0 59832  85182.000000  0    1090797.332  -4871349.437  -4755206.006
10 0 59832  85302.000000  0    1009404.971  -5475095.118  -4065660.599
10 0 59832  85422.000000  0     900732.158  -5981910.165  -3304869.512
10 0 59832  85542.000000  0     768431.267  -6382418.010  -2486102.561
10 0 59832  85662.000000  0     616719.089  -6669152.875  -1623679.519
10 0 59832  85782.000000  0     450269.828  -6836711.899   -732719.655
10 0 59832  85902.000000  0     274096.463  -6881867.430    171127.092
10 0 59832  86022.000000  0      93423.807  -6803637.122   1071960.860
10 0 59832  86142.000000  0     -86443.606  -6603310.183   1953919.551
10 0 59832  86262.000000  0    -260255.613  -6284427.742   2801467.957
10 0 59832  86382.000000  0    -422948.670  -5852716.146   3599681.285
10 0 59833    102.000000  0    -569773.025  -5315974.938   4334513.286
10 0 59833    222.000000  0    -696411.776  -4683927.604   4993046.117
10 0 59833    342.000000  0    -799088.394  -3968035.503   5563717.838
10 0 59833    462.000000  0    -874660.689  -3181280.507   6036524.159
10 0 59833    582.000000  0    -920699.136  -2337919.411   6403188.993
10 0 59833    702.000000  0    -935547.641  -1453219.924   6657301.289
10 0 59833    822.000000  0    -918366.516   -543182.248   6794421.670
10 0 59833    942.000000  0    -869157.549    375751.846   6812156.011
10 0 59833   1062.000000  0    -788769.136   1286996.032   6710194.716
10 0 59833   1182.000000  0    -678881.190   2174118.446   6490317.805
10 0 59833   1302.000000  0    -541970.903   3021137.616   6156365.655
10 0 59833   1422.000000  0    -381260.119   3812811.149   5714176.270
10 0 59833   1542.000000  0    -200645.166   4534913.033   5171488.291
10 0 59833   1662.000000  0      -4609.761   5174494.278   4537812.224
10 0 59833   1782.000000  0     201877.405   5720124.084   3824268.094
10 0 59833   1902.000000  0     413477.658   6162100.126   3043393.756
10 0 59833   2022.000000  0     624607.770   6492635.655   2208929.190
10 0 59833   2142.000000  0     829575.262   6706007.281   1335567.552
10 0 59833   2262.000000  0    1022716.505   6798659.616    438690.878
10 0 59833   2382.000000  0    1198536.746   6769267.711   -465908.547
10 0 59833   2502.000000  0    1351847.024   6618754.640  -1362314.863
10 0 59833   2622.000000  0    1477894.375   6350264.180  -2234776.337
10 0 59833   2742.000000  0    1572482.725   5969090.088  -3067988.875
10 0 59833   2862.000000  0    1632081.397   5482562.985  -3847369.318
10 0 59833   2982.000000  0    1653918.851   4899897.974  -4559312.255
10 0 59833   3102.000000  0    1636059.287   4232007.489  -5191424.633
10 0 59833   3222.000000  0    1577460.419   3491286.286  -5732734.242
10 0 59833   3342.000000  0    1478011.981   2691373.436  -6173871.357
10 0 59833   3462.000000  0    1338553.551   1846895.348  -6507219.370
10 0 59833   3582.000000  0    1160872.844    973197.925  -6727034.368
10 0 59833   3702.000000  0     947684.325     86070.265  -6829535.097
10 0 59833   3822.000000  0     702587.970   -798536.186  -6812960.598
10 0 59833   3942.000000  0     430009.066  -1664788.021  -6677595.676
10 0 59833   4062.000000  0     135120.791  -2497244.641  -6425765.821
10 0 59833   4182.000000  0    -176250.548  -3281127.228  -6061803.930
10 0 59833   4302.000000  0    -497736.775  -4002578.902  -5591983.400
10 0 59833   4422.000000  0    -822552.379  -4648909.027  -5024420.330
10 0 59833   4542.000000  0   -1143631.964  -5208820.578  -4368945.356
10 0 59833   4662.000000  0   -1453778.407  -5672615.358  -3636944.196
10 0 59833   4782.000000  0   -1745818.294  -6032372.078  -2841168.534
10 0 59833   4902.000000  0   -2012761.411  -6282093.296  -1995520.089
10 0 59833   5022.000000  0   -2247960.842  -6417817.967  -1114810.144
10 0 59833   5142.000000  0   -2445269.504  -6437695.340   -214497.968
10 0 59833   5262.000000  0   -2599189.290  -6342016.639    689586.426
10 0 59833   5382.000000  0   -2705008.497  -6133203.298   1581528.535
10 0 59833   5502.000000  0   -2758923.938  -5815752.138   2445618.692
10 0 59833   5622.000000  0   -2758144.338  -5396138.270   3266637.632
10 0 59833   5742.000000  0   -2700972.087  -4882678.788   4030131.621
10 0 59833   5862.000000  0   -2586861.798  -4285361.330   4722671.273
10 0 59833   5982.000000  0   -2416455.262  -3615642.169   5332089.649
10 0 59833   6102.000000  0   -2191590.900  -2886217.513   5847695.386
10 0 59833   6222.000000  0   -1915287.380  -2110775.422   6260455.782
10 0 59833   6342.000000  0   -1591702.837  -1303734.568   6563150.103
10 0 59833   6462.000000  0   -1226070.644   -479971.935   6750490.551
10 0 59833   6582.000000  0    -824613.987    345453.369   6819207.136
10 0 59833   6702.000000  0    -394440.264   1157574.033   6768101.386
10 0 59833   6822.000000  0      56584.813   1941785.705   6598066.576
10 0 59833   6942.000000  0     519980.954   2684109.589   6312072.932
10 0 59833   7062.000000  0     986811.951   3371441.534   5915118.588
10 0 59833   7182.000000  0    1447856.693   3991785.545   5414147.720
10 0 59833   7302.000000  0    1893790.171   4534467.544   4817935.062
10 0 59833   7422.000000  0    2315372.064   4990325.741   4136937.835
10 0 59833   7542.000000  0    2703638.012   5351871.439   3383116.038
10 0 59833   7662.000000  0    3050090.205   5613420.248   2569726.552
10 0 59833   7782.000000  0    3346883.959   5771191.125   1711087.539
10 0 59833   7902.000000  0    3587002.457   5823363.237    822320.365
10 0 59833   8022.000000  0    3764416.521   5770094.893    -80923.129
10 0 59833   8142.000000  0    3874226.845   5613501.814   -982744.921
10 0 59833   8262.000000  0    3912783.110   5357595.750  -1867288.668
10 0 59833   8382.000000  0    3877778.316   5008185.940  -2719026.196
10 0 59833   8502.000000  0    3768314.801   4572744.888  -3523036.145
10 0 59833   8622.000000  0    3584940.682   4060242.547  -4265267.838
10 0 59833   8742.000000  0    3329657.493   3480955.195  -4932784.818
10 0 59833   8862.000000  0    3005899.032   2846253.162  -5513986.084
10 0 59833   8982.000000  0    2618481.662   2168371.858  -5998799.357
10 0 59833   9102.000000  0    2173528.485   1460172.799  -6378845.263
10 0 59833   9222.000000  0    1678369.052    734898.899  -6647569.850
10 0 59833   9342.000000  0    1141418.279      5929.908  -6800346.356
10 0 59833   9462.000000  0     572033.938   -713459.882  -6834547.885
10 0 59833   9582.000000  0     -19644.650  -1410338.313  -6749586.192
10 0 59833   9702.000000  0    -622872.155  -2072340.863  -6546919.766
10 0 59833   9822.000000  0   -1226487.287  -2687884.715  -6230033.074
10 0 59833   9942.000000  0   -1819114.542  -3246369.107  -5804382.919
10 0 59833  10062.000000  0   -2389373.523  -3738356.855  -5277314.030
10 0 59833  10182.000000  0   -2926094.844  -4155736.854  -4657945.001
10 0 59833  10302.000000  0   -3418539.200  -4491863.799  -3957021.609
10 0 59833  10422.000000  0   -3856613.306  -4741670.664  -3186739.744
10 0 59833  10542.000000  0   -4231079.441  -4901752.522  -2360540.673
10 0 59833  10662.000000  0   -4533753.701  -4970418.647  -1492880.139
10 0 59833  10782.000000  0   -4757687.528  -4947711.229   -598975.297
10 0 59833  10902.000000  0   -4897327.588  -4835389.658    305465.888
10 0 59833  11022.000000  0   -4948649.724  -4636880.215   1204527.780
10 0 59833  11142.000000  0   -4909262.496  -4357190.893   2082376.738
10 0 59833  11262.000000  0   -4778477.162  -4002793.637   2923549.231
10 0 59833  11382.000000  0   -4557343.094  -3581477.752   3713232.014
10 0 59833  11502.000000  0   -4248647.917  -3102178.533   4437529.179
10 0 59833  11622.000000  0   -3856881.355  -2574784.412   5083709.992
10 0 59833  11742.000000  0   -3388165.636  -2009929.474   5640431.166
10 0 59833  11862.000000  0   -2850155.258  -1418776.849   6097933.164
10 0 59833  11982.000000  0   -2251906.636   -812795.514   6448208.094
10 0 59833  12102.000000  0   -1603719.884   -203534.700   6685134.419
10 0 59833  12222.000000  0    -916957.129    397596.373   6804576.132
10 0 59833  12342.000000  0    -203842.830    979540.419   6804450.028
10 0 59833  12462.000000  0     522753.517   1531794.939   6684760.080
10 0 59833  12582.000000  0    1249549.161   2044601.865   6447597.493
10 0 59833  12702.000000  0    1963090.252   2509119.981   6097105.586
10 0 59833  12822.000000  0    2650000.157   2917577.869   5639412.314
99
